{"type": "FeatureCollection", "features": [{"type": "Feature", "geometry": {"type": "MultiPolygon", "coordinates": [[[[-95.3, 45.16], [-96.87, 43.61], [-98.27, 41.57], [-100.45, 39.84], [-101.42, 38.73], [-102.32, 35.65], [-103.44, 32.47], [-104.19, 29.84], [-104.25141243925746, 29.312876563040074], [-104.636, 29.554], [-104.879, 29.863], [-104.926, 30.211], [-105.115, 30.476], [-105.605, 30.822], [-106.064, 31.194], [-106.509, 31.409], [-106.568, 31.573], [-107.183, 31.602], [-107.745, 31.62], [-108.002, 31.623], [-108.044, 31.186], [-109.094, 31.123], [-109.962, 31.131], [-110.773, 31.148], [-111.169, 31.194], [-112.25, 31.509], [-113.701, 31.959], [-114.586, 32.219], [-115.006, 32.395], [-115.016, 32.542], [-115.798, 32.441], [-115.82591136759582, 32.4395568379791], [-115.9, 32.81], [-116.0, 34.12], [-116.48, 34.94], [-117.12, 35.82], [-118.46000000000001, 36.63], [-118.88, 37.1], [-119.02, 37.69], [-118.61, 38.24], [-117.61, 39.36], [-116.69, 40.11], [-116.66, 41.41], [-116.16, 41.75], [-114.09, 42.19], [-113.53999999999999, 42.87], [-113.58, 43.38], [-114.06, 43.65], [-114.0, 44.22], [-113.26, 44.93], [-111.03, 45.6], [-109.18, 45.87], [-106.81, 45.83], [-105.66, 46.29], [-104.26, 47.24], [-102.53147686207363, 49.19182517009868], [-101.067, 49.197], [-99.664, 49.183], [-98.264, 49.18], [-96.747, 49.197], [-95.911, 49.174], [-95.453, 49.167], [-95.49, 49.561], [-94.579, 49.541], [-94.395, 48.962], [-93.805, 48.857], [-93.513, 48.786], [-93.223, 48.834], [-92.5, 48.697], [-92.11247422680412, 48.57520618556701], [-95.3, 45.16]], [[-108.74, 39.68], [-108.46000000000001, 38.33], [-107.94, 37.87], [-106.33, 37.25], [-105.14, 37.14], [-104.89, 37.5], [-104.2, 38.31], [-104.08, 39.21], [-104.7, 41.51], [-105.96, 42.85], [-107.39, 42.76], [-109.08, 41.62], [-108.74, 39.68]]], [[[-97.75, 33.93], [-95.47, 33.62], [-94.58, 32.65], [-94.68, 31.99], [-95.19, 31.63], [-96.72, 31.47], [-97.55, 31.26], [-98.47, 30.93], [-99.71, 30.52], [-100.53, 30.54], [-101.35, 31.12], [-101.56, 32.12], [-100.09, 33.35], [-97.75, 33.93]]], [[[-81.68, 26.39], [-80.72, 25.3], [-79.95091892839918, 25.19646985574604], [-79.965, 25.158], [-80.143, 24.859], [-80.331, 24.705], [-80.635, 24.487], [-81.054, 24.361], [-81.782, 24.208], [-82.816, 24.169], [-83.288, 24.221], [-83.28, 24.513], [-83.238, 24.798], [-83.163, 25.012], [-82.313, 25.017], [-82.368, 25.134], [-82.51, 25.288], [-82.632, 25.453], [-81.934, 25.61], [-82.143, 26.09], [-82.324, 26.171], [-82.535, 26.48], [-82.719, 26.892], [-82.8598086628512, 27.125465140478674], [-81.68, 26.39]]]]}, "properties": {"DN": 2, "VALID": "202609281200", "EXPIRE": "202609291200", "ISSUE": "202609280451", "VALID_ISO": "2026-09-28T12:00:00+00:00", "EXPIRE_ISO": "2026-09-29T12:00:00+00:00", "ISSUE_ISO": "2026-09-28T04:51:00+00:00", "FORECASTER": "Marsh", "LABEL": "TSTM", "LABEL2": "General Thunderstorms Risk", "stroke": "#55BB55", "fill": "#C1E9C1"}}]}